From: horizons@ssd.jpl.nasa.gov (Horizons Ephemeris System)
Subject: [Horizons] SMALL BODY #C(500@10)_T(339P/Gibbs) (1/1)
Date: March 1, 2021 at 1:23:10 PM PST

Automated mail xmit by MAIL_REQUEST, PID= 2301 Mon Mar  1 13:23:10 2021
++++++++++++++++++++++++++++++++ (part 1 of 1)  +++++++++++++++++++++++++++++++
*******************************************************************************
JPL/HORIZONS                     339P/Gibbs                2021-Mar-01 13:23:09
Rec #:90001263 (+COV) Soln.date: 2016-Nov-12_10:43:37    # obs: 141 (2009-2016)

IAU76/J2000 helio. ecliptic osc. elements (au, days, deg., period=Julian yrs):

 EPOCH=  2455329.5 ! 2010-May-13.0000000 (TDB)    RMSW= n.a.
  EC= .6397913441480939   QR= 1.324093764792536   TP= 2455008.4815161484
  OM= 172.7770425728822   W= 27.15413297226823    IN= 5.748211981731838
  A= 3.675907680955106    MA= 44.89388808701202   ADIST= 6.027721597117676
  PER= 7.0478249360451    N= .139848293           ANGMOM= .025347499
  DAN= 1.38359            DDN= 5.04089            L= 199.8140588
  B= 2.6199165            MOID= .326511           TP= 2009-Jun-25.9815161484

Comet physical (GM= km^3/s^2; RAD= km):
  GM= n.a.                RAD= n.a.
  M1=  12.1     M2=  17.7     k1=  40.    k2=  5.      PHCOF=  .030

COMET comments 
1: soln ref.= JPL#19, data arc: 2009-04-24 to 2016-09-26
2: k1=40., k2=5., phase coef.=0.03;
*******************************************************************************


*******************************************************************************
Ephemeris / MAIL_REQUEST Mon Mar  1 13:23:09 2021 Pasadena, USA  / Horizons
*******************************************************************************
Target body name: 339P/Gibbs                      {source: JPL#19}
Center body name: Sun (10)                        {source: DE431}
Center-site name: BODY CENTER
*******************************************************************************
Start time      : A.D. 1990-Jan-01 00:00:00.0000 TDB
Stop  time      : A.D. 2020-Dec-31 00:00:00.0000 TDB
Step-size       : 10080 minutes
*******************************************************************************
Center geodetic : 0.00000000,0.00000000,0.0000000 {E-lon(deg),Lat(deg),Alt(km)}
Center cylindric: 0.00000000,0.00000000,0.0000000 {E-lon(deg),Dxy(km),Dz(km)}
Center radii    : 696000.0 x 696000.0 x 696000.0 k{Equator, meridian, pole}    
Small perturbers: Yes                             {source: SB431-N16}
Output units    : AU-D
Output type     : GEOMETRIC cartesian states
Output format   : 6 (LT, range, and range-rate)
Reference frame : Ecliptic of J2000.0
*******************************************************************************
Initial IAU76/J2000 heliocentric ecliptic osculating elements (au, days, deg.):
 EPOCH=  2455329.5 ! 2010-May-13.0000000 (TDB)    RMSW= n.a.                  
  EC= .6397913441480939   QR= 1.324093764792536   TP= 2455008.4815161484      
  OM= 172.7770425728822   W= 27.15413297226823    IN= 5.748211981731838       
 Equivalent ICRF heliocentric equatorial cartesian coordinates (au, au/d):
  X= 2.629507053596162E+00  Y=-1.908435472238209E+00  Z=-6.451634869978108E-01
 VX= 9.648631560216440E-03 VY= 2.177967387839181E-03 VZ= 5.690256067975838E-04
Comet physical (GM= km^3/s^2; RAD= km):                                        
  GM= n.a.                RAD= n.a.                                           
  M1=  12.1     M2=  17.7     k1=  40.    k2=  5.      PHCOF=  .030           
*******************************************************************************
           JDTDB,            Calendar Date (TDB),                     LT,                     RG,                     RR,
**************************************************************************************************************************
$$SOE
2451742.500000000, A.D. 2000-Jul-17 00:00:00.0000,  2.933994870654273E-02,  5.080054641475392E+00, -3.341166399835210E-03,
2451749.500000000, A.D. 2000-Jul-24 00:00:00.0000,  2.920390995254305E-02,  5.056500261384659E+00, -3.388675599296187E-03,
2451756.500000000, A.D. 2000-Jul-31 00:00:00.0000,  2.906594802331593E-02,  5.032612893825600E+00, -3.436308736407464E-03,
2451763.500000000, A.D. 2000-Aug-07 00:00:00.0000,  2.892605754666957E-02,  5.008391608632040E+00, -3.484083402657696E-03,
2451770.500000000, A.D. 2000-Aug-14 00:00:00.0000,  2.878423248318008E-02,  4.983835360110151E+00, -3.532014926486460E-03,
2451777.500000000, A.D. 2000-Aug-21 00:00:00.0000,  2.864046619963004E-02,  4.958942999753942E+00, -3.580117915188055E-03,
2451784.500000000, A.D. 2000-Aug-28 00:00:00.0000,  2.849475144289453E-02,  4.933713271723754E+00, -3.628408422781885E-03,
2451791.500000000, A.D. 2000-Sep-04 00:00:00.0000,  2.834708030597119E-02,  4.908144806964575E+00, -3.676902403194596E-03,
2451798.500000000, A.D. 2000-Sep-11 00:00:00.0000,  2.819744425974324E-02,  4.882236128705610E+00, -3.725614653689006E-03,
2451805.500000000, A.D. 2000-Sep-18 00:00:00.0000,  2.804583419799958E-02,  4.855985660255286E+00, -3.774558975805921E-03,
2451812.500000000, A.D. 2000-Sep-25 00:00:00.0000,  2.789224047232235E-02,  4.829391731041834E+00, -3.823748421736762E-03,
2451819.500000000, A.D. 2000-Oct-02 00:00:00.0000,  2.773665291926376E-02,  4.802452581318820E+00, -3.873195435877272E-03,
2451826.500000000, A.D. 2000-Oct-09 00:00:00.0000,  2.757906088287377E-02,  4.775166366065690E+00, -3.922911953783937E-03,
2451833.500000000, A.D. 2000-Oct-16 00:00:00.0000,  2.741945323323905E-02,  4.747531158197688E+00, -3.972909505581982E-03,
2451840.500000000, A.D. 2000-Oct-23 00:00:00.0000,  2.725781838066766E-02,  4.719544951021859E+00, -4.023199317582242E-03,
2451847.500000000, A.D. 2000-Oct-30 00:00:00.0000,  2.709414428897318E-02,  4.691205660537130E+00, -4.073792176996123E-03,
2451854.500000000, A.D. 2000-Nov-06 00:00:00.0000,  2.692841850978217E-02,  4.662511131374449E+00, -4.124697448218534E-03,
2451861.500000000, A.D. 2000-Nov-13 00:00:00.0000,  2.676062825926314E-02,  4.633459150082012E+00, -4.175922552079364E-03,
2451868.500000000, A.D. 2000-Nov-20 00:00:00.0000,  2.659076044899016E-02,  4.604047450469119E+00, -4.227475647829487E-03,
2451875.500000000, A.D. 2000-Nov-27 00:00:00.0000,  2.641880162621762E-02,  4.574273703265074E+00, -4.279366328190645E-03,
2451882.500000000, A.D. 2000-Dec-04 00:00:00.0000,  2.624473795319393E-02,  4.544135512537458E+00, -4.331603839786089E-03,
2451889.500000000, A.D. 2000-Dec-11 00:00:00.0000,  2.606855523454796E-02,  4.513630420433954E+00, -4.384196650946431E-03,
2451896.500000000, A.D. 2000-Dec-18 00:00:00.0000,  2.589023894450916E-02,  4.482755911895350E+00, -4.437152676314200E-03,
2451903.500000000, A.D. 2000-Dec-25 00:00:00.0000,  2.570977424546859E-02,  4.451509417869304E+00, -4.490479447498575E-03,
2451910.500000000, A.D. 2001-Jan-01 00:00:00.0000,  2.552714600149432E-02,  4.419888317650437E+00, -4.544184202491102E-03,
2451917.500000000, A.D. 2001-Jan-08 00:00:00.0000,  2.534233878882804E-02,  4.387889940697783E+00, -4.598273954139974E-03,
2451924.500000000, A.D. 2001-Jan-15 00:00:00.0000,  2.515533690336335E-02,  4.355511567929609E+00, -4.652755573718174E-03,
2451931.500000000, A.D. 2001-Jan-22 00:00:00.0000,  2.496612436496764E-02,  4.322750432471724E+00, -4.707635836393942E-03,
2451938.500000000, A.D. 2001-Jan-29 00:00:00.0000,  2.477468492698830E-02,  4.289603721303428E+00, -4.762920996254846E-03,
2451945.500000000, A.D. 2001-Feb-05 00:00:00.0000,  2.458100212270039E-02,  4.256068583299681E+00, -4.818615476343266E-03,
2451952.500000000, A.D. 2001-Feb-12 00:00:00.0000,  2.438505934069360E-02,  4.222142142283947E+00, -4.874722470926544E-03,
2451959.500000000, A.D. 2001-Feb-19 00:00:00.0000,  2.418683981496803E-02,  4.187821495313330E+00, -4.931246652869087E-03,
2451966.500000000, A.D. 2001-Feb-26 00:00:00.0000,  2.398632657003841E-02,  4.153103703173672E+00, -4.988193361524030E-03,
2451973.500000000, A.D. 2001-Mar-05 00:00:00.0000,  2.378350242813519E-02,  4.117985791626370E+00, -5.045567165137346E-03,
2451980.500000000, A.D. 2001-Mar-12 00:00:00.0000,  2.357835004552776E-02,  4.082464757697561E+00, -5.103371727722310E-03,
2451987.500000000, A.D. 2001-Mar-19 00:00:00.0000,  2.337085194648508E-02,  4.046537575558214E+00, -5.161609928164727E-03,
2451994.500000000, A.D. 2001-Mar-26 00:00:00.0000,  2.316099055415423E-02,  4.010201201870583E+00, -5.220283887654541E-03,
2452001.500000000, A.D. 2001-Apr-02 00:00:00.0000,  2.294874822178368E-02,  3.973452581194361E+00, -5.279394934804367E-03,
2452008.500000000, A.D. 2001-Apr-09 00:00:00.0000,  2.273410726573085E-02,  3.936288651701748E+00, -5.338943559382568E-03,
2452015.500000000, A.D. 2001-Apr-16 00:00:00.0000,  2.251705000007397E-02,  3.898706351170311E+00, -5.398929377572949E-03,
2452022.500000000, A.D. 2001-Apr-23 00:00:00.0000,  2.229755877414751E-02,  3.860702623482055E+00, -5.459350964044721E-03,
2452029.500000000, A.D. 2001-Apr-30 00:00:00.0000,  2.207561603007186E-02,  3.822274428584364E+00, -5.520204884585284E-03,
2452036.500000000, A.D. 2001-May-07 00:00:00.0000,  2.185120441620135E-02,  3.783418762132921E+00, -5.581484305711582E-03,
2452043.500000000, A.D. 2001-May-14 00:00:00.0000,  2.162430690201885E-02,  3.744132675385094E+00, -5.643180708349563E-03,
2452050.500000000, A.D. 2001-May-21 00:00:00.0000,  2.139490680197628E-02,  3.704413279327790E+00, -5.705285419105789E-03,
2452057.500000000, A.D. 2001-May-28 00:00:00.0000,  2.116298781366407E-02,  3.664257751286291E+00, -5.767787838651428E-03,
2452064.500000000, A.D. 2001-Jun-04 00:00:00.0000,  2.092853412335290E-02,  3.623663353198242E+00, -5.830674314134516E-03,
2452071.500000000, A.D. 2001-Jun-11 00:00:00.0000,  2.069153053587174E-02,  3.582627454101341E+00, -5.893927865156125E-03,
2452078.500000000, A.D. 2001-Jun-18 00:00:00.0000,  2.045196261389783E-02,  3.541147554250635E+00, -5.957527928351034E-03,
2452085.500000000, A.D. 2001-Jun-25 00:00:00.0000,  2.020981683001977E-02,  3.499221311447453E+00, -6.021449983276776E-03,
